NORAD_CAT_ID,OBJECT_NAME,OBJECT_TYPE,EPOCH,MEAN_MOTION,ECCENTRICITY,INCLINATION,RA_OF_ASC_NODE,ARG_OF_PERICENTER,MEAN_ANOMALY,BSTAR,MEAN_MOTION_DOT,MEAN_MOTION_DDOT,TLE_LINE0,TLE_LINE1,TLE_LINE2,SEMIMAJOR_AXIS,PERIOD,APOGEE,PERIGEE,DECAYED
49152.0,STARLINK-3081,PAYLOAD,2023-01-15 01:54:32,14.98298692,0.0003351999999999,70.0021,273.0196,272.8075,87.27,-0.0006303999999999,-7.601e-05,0.0,0 STARLINK-3081,1 49152U 21082Y   23015.07953758 -.00007601  00000-0 -63040-3 0  9991,2 49152  70.0021 273.0196 0003352 272.8075  87.2700 14.98298692 75896,6950.29,96.109,574.484,569.825,0.0
49152.0,STARLINK-3081,PAYLOAD,2023-01-15 09:55:11,14.98334518,0.0004122,70.0024,272.1782,267.1576,92.9111,0.00066556,7.859e-05,0.0,0 STARLINK-3081,1 49152U 21082Y   23015.41332804  .00007859  00000-0  66556-3 0  9990,2 49152  70.0024 272.1782 0004122 267.1576  92.9111 14.98334518 75942,6950.179,96.107,574.909,569.179,0.0
49152.0,STARLINK-3081,PAYLOAD,2023-01-15 22:44:16,14.98376189,0.0003501,70.0022,270.8297,275.208,84.8679,0.0029017,0.00034744,0.0,0 STARLINK-3081,1 49152U 21082Y   23015.94740822  .00034744  00000-0  29017-2 0  9994,2 49152  70.0022 270.8297 0003501 275.2080  84.8679 14.98376189 76014,6950.05,96.104,574.3480000000001,569.482,0.0
49152.0,STARLINK-3081,PAYLOAD,2023-01-16 01:56:31,14.98396706,0.0003428,70.0021,270.4924,277.9306,82.1464,0.0027281,0.00032668,0.0,0 STARLINK-3081,1 49152U 21082Y   23016.08092009  .00032668  00000-0  27281-2 0  9991,2 49152  70.0021 270.4924 0003428 277.9306  82.1464 14.98396706 76047,6949.986999999999,96.103,574.234,569.469,0.0
49152.0,STARLINK-3081,PAYLOAD,2023-01-16 09:57:11,14.98379891,0.0003148,70.0022,269.6503,275.6694,84.4106,0.0014186,0.00016896,0.0,0 STARLINK-3081,1 49152U 21082Y   23016.41471518  .00016896  00000-0  14186-2 0  9999,2 49152  70.0022 269.6503 0003148 275.6694  84.4106 14.98379891 76094,6950.039000000001,96.104,574.091,569.716,0.0
49152.0,STARLINK-3081,PAYLOAD,2023-01-16 16:21:43,14.98331804,0.0003365,70.0022,268.9774,268.5101,91.5673,-0.00053825,-6.51e-05,0.0,0 STARLINK-3081,1 49152U 21082Y   23016.68175866 -.00006510  00000-0 -53825-3 0  9993,2 49152  70.0022 268.9774 0003365 268.5101  91.5673 14.98331804 76136,6950.187,96.107,574.391,569.714,0.0
49152.0,STARLINK-3081,PAYLOAD,2023-01-16 22:46:16,14.98319103,0.0003401,70.0022,268.3038,267.7586,92.3184,0.00090909,0.00010768,0.0,0 STARLINK-3081,1 49152U 21082Y   23016.94880266  .00010768  00000-0  90909-3 0  9991,2 49152  70.0022 268.3038 0003401 267.7586  92.3184 14.98319103 76169,6950.227,96.108,574.455,569.7280000000001,0.0
49152.0,STARLINK-3081,PAYLOAD,2023-01-17 09:59:13,14.98323094,0.0003405,70.0023,267.1257,266.8506,93.2263,0.0014856,0.00017675,0.0,0 STARLINK-3081,1 49152U 21082Y   23017.41612754  .00017675  00000-0  14856-2 0  9999,2 49152  70.0023 267.1257 0003405 266.8506  93.2263 14.98323094 76236,6950.214,96.107,574.446,569.7130000000001,0.0
49152.0,STARLINK-3081,PAYLOAD,2023-01-18 02:00:33,14.98342295,0.0003428,70.0023,265.4423,266.8701,93.2066,0.0014162,0.00016851,0.0,0 STARLINK-3081,1 49152U 21082Y   23018.08372660  .00016851  00000-0  14162-2 0  9997,2 49152  70.0023 265.4423 0003428 266.8701  93.2066 14.98342295 76341,6950.155,96.106,574.4019999999999,569.637,0.0
49152.0,STARLINK-3081,PAYLOAD,2023-01-18 10:01:14,14.9834509,0.000305,70.0031,264.6005,270.242,89.839,0.00153,0.00018217,0.0,0 STARLINK-3081,1 49152U 21082Y   23018.41752642  .00018217  00000-0  15300-2 0  9999,2 49152  70.0031 264.6005 0003050 270.2420  89.8390 14.98345090 76386,6950.146,96.106,574.131,569.891,0.0
49152.0,STARLINK-3081,PAYLOAD,2023-01-18 19:38:02,14.98350363,0.0003436,70.0024,263.5911,266.1775,93.8992,0.00095882,0.00011372,0.0,0 STARLINK-3081,1 49152U 21082Y   23018.81808155  .00011372  00000-0  95882-3 0  9993,2 49152  70.0024 263.5911 0003436 266.1775  93.8992 14.98350363 76457,6950.13,96.106,574.383,569.607,0.0
49152.0,STARLINK-3081,PAYLOAD,2023-01-18 21:14:10,14.98349167,0.000343,70.0024,263.4228,266.1174,93.9593,0.00084348,9.991e-05,0.0,0 STARLINK-3081,1 49152U 21082Y   23018.88484119  .00009991  00000-0  84348-3 0  9999,2 49152  70.0024 263.4228 0003430 266.1174  93.9593 14.98349167 76452,6950.134,96.106,574.383,569.615,0.0
49152.0,STARLINK-3081,PAYLOAD,2023-01-19 10:03:14,14.98341327,0.0002448,70.0048,262.077,282.7084,77.3801,0.00029798,3.465e-05,0.0,0 STARLINK-3081,1 49152U 21082Y   23019.41892323  .00003465  00000-0  29798-3 0  9997,2 49152  70.0048 262.0770 0002448 282.7084  77.3801 14.98341327 76545,6950.158,96.106,573.724,570.321,0.0
49152.0,STARLINK-3081,PAYLOAD,2023-01-20 02:04:35,14.98328197,0.0003088,70.0026,260.3937,270.3549,89.7256,-9.8986e-05,-1.274e-05,0.0,0 STARLINK-3081,1 49152U 21082Y   23020.08652484 -.00001274  00000-0 -98986-4 0  9998,2 49152  70.0026 260.3937 0003088 270.3549  89.7256 14.98328197 76649,6950.198,96.107,574.21,569.9169999999999,0.0
49152.0,STARLINK-3081,PAYLOAD,2023-01-21 02:06:36,14.98347634,0.0003249,70.0021,257.869,273.9327,86.1461,0.0010186,0.00012087,0.0,0 STARLINK-3081,1 49152U 21082Y   23021.08792109  .00012087  00000-0  10186-2 0  9994,2 49152  70.0021 257.8690 0003249 273.9327  86.1461 14.98347634 76795,6950.138000000001,96.106,574.261,569.745,0.0
49152.0,STARLINK-3081,PAYLOAD,2023-01-21 16:31:48,14.98342882,0.0002861,70.0028,256.3523,276.7307,83.3527,0.0004483,5.262e-05,0.0,0 STARLINK-3081,1 49152U 21082Y   23021.68876010  .00005262  00000-0  44830-3 0  9995,2 49152  70.0028 256.3523 0002861 276.7307  83.3527 14.98342882 76881,6950.153,96.106,574.006,570.03,0.0
49152.0,STARLINK-3081,PAYLOAD,2023-01-22 08:33:09,14.98339294,0.0002979,70.0023,254.6691,276.6417,83.4403,0.00019904,2.283e-05,0.0,0 STARLINK-3081,1 49152U 21082Y   23022.35635760  .00002283  00000-0  19904-3 0  9999,2 49152  70.0023 254.6691 0002979 276.6417  83.4403 14.98339294 76982,6950.164000000001,96.106,574.1,569.9590000000001,0.0
49152.0,STARLINK-3081,PAYLOAD,2023-01-23 02:10:38,14.98332952,0.0003184,70.0012,252.819,271.6382,88.4412,-1.6493e-05,-2.9e-06,0.0,0 STARLINK-3081,1 49152U 21082Y   23023.09071907 -.00000290  00000-0 -16493-4 0  9997,2 49152  70.0012 252.8190 0003184 271.6382  88.4412 14.98332952 77091,6950.184,96.107,574.262,569.836,0.0
49152.0,STARLINK-3081,PAYLOAD,2023-01-24 19:50:07,14.98332163,0.0003069,70.002,248.4431,273.9986,86.0822,0.00016845,1.918e-05,0.0,0 STARLINK-3081,1 49152U 21082Y   23024.82647964  .00001918  00000-0  16845-3 0  9997,2 49152  70.0020 248.4431 0003069 273.9986  86.0822 14.98332163 77358,6950.186,96.107,574.184,569.918,0.0
49152.0,STARLINK-3081,PAYLOAD,2023-01-25 08:39:12,14.98333536,0.0003063999999999,70.0017,247.0965,273.6293,86.4515,0.0001356,1.525e-05,0.0,0 STARLINK-3081,1 49152U 21082Y   23025.36055849  .00001525  00000-0  13560-3 0  9997,2 49152  70.0017 247.0965 0003064 273.6293  86.4515 14.98333536 77420,6950.182,96.107,574.1759999999999,569.9169999999999,0.0
49152.0,STARLINK-3081,PAYLOAD,2023-01-25 19:52:08,14.98328808,0.0003045,70.0012,245.9182,270.8789,89.2021,0.00016432,1.868e-05,0.0,0 STARLINK-3081,1 49152U 21082Y   23025.82788086  .00001868  00000-0  16432-3 0  9995,2 49152  70.0012 245.9182 0003045 270.8789  89.2021 14.98328808 77509,6950.196999999999,96.107,574.178,569.945,0.0
49152.0,STARLINK-3081,PAYLOAD,2023-01-26 11:53:29,14.98332203,0.000305,70.0013,244.2351,269.9809,90.1001,9.2888e-05,1.016e-05,0.0,0 STARLINK-3081,1 49152U 21082Y   23026.49547753  .00001016  00000-0  92888-4 0  9998,2 49152  70.0013 244.2351 0003050 269.9809  90.1001 14.98332203 77590,6950.186,96.107,574.1709999999999,569.931,0.0
49152.0,STARLINK-3081,PAYLOAD,2023-01-26 19:54:09,14.98333643,0.0003038999999999,70.0013,243.3936,270.0804,90.0007,0.00011179,1.241e-05,0.0,0 STARLINK-3081,1 49152U 21082Y   23026.82927593  .00001241  00000-0  11179-3 0  9992,2 49152  70.0013 243.3936 0003039 270.0804  90.0007 14.98333643 77655,6950.182,96.107,574.159,569.934,0.0
49152.0,STARLINK-3081,PAYLOAD,2023-01-27 00:42:33,14.98335283,0.0003043,70.0012,242.8886,269.9823,90.0987,0.00012423,1.39e-05,0.0,0 STARLINK-3081,1 49152U 21082Y   23027.02955425  .00001390  00000-0  12423-3 0  9998,2 49152  70.0012 242.8886 0003043 269.9823  90.0987 14.98335283 77676,6950.177,96.107,574.156,569.927,0.0
49152.0,STARLINK-3081,PAYLOAD,2023-01-27 19:56:10,14.98327493,0.0003017,70.0011,240.86900000000003,270.2507,89.8307,2.5452e-05,2.11e-06,0.0,0 STARLINK-3081,1 49152U 21082Y   23027.83068098  .00000211  00000-0  25452-4 0  9996,2 49152  70.0011 240.8690 0003017 270.2507  89.8307 14.98327493 77802,6950.201,96.107,574.163,569.969,0.0
49152.0,STARLINK-3081,PAYLOAD,2023-01-27 21:32:18,14.98329443,0.0003038999999999,70.001,240.7004,271.4879,88.5932,3.6047e-05,3.37e-06,0.0,0 STARLINK-3081,1 49152U 21082Y   23027.89743949  .00000337  00000-0  36047-4 0  9998,2 49152  70.0010 240.7004 0003039 271.4879  88.5932 14.98329443 77805,6950.195,96.107,574.172,569.947,0.0
49152.0,STARLINK-3081,PAYLOAD,2023-01-27 23:08:26,14.98330839,0.0003036,70.001,240.532,271.9477,88.1334,5.0443e-05,5.09e-06,0.0,0 STARLINK-3081,1 49152U 21082Y   23027.96419825  .00000509  00000-0  50443-4 0  9996,2 49152  70.0010 240.5320 0003036 271.9477  88.1334 14.98330839 77814,6950.19,96.107,574.165,569.945,0.0
49152.0,STARLINK-3081,PAYLOAD,2023-01-28 19:58:11,14.9833198,0.000296,70.0011,238.3438,270.9596,89.1224,4.8021e-05,4.8e-06,0.0,0 STARLINK-3081,1 49152U 21082Y   23028.83207649  .00000480  00000-0  48021-4 0  9999,2 49152  70.0011 238.3438 0002960 270.9596  89.1224 14.98331980 77958,6950.187,96.107,574.109,569.995,0.0
49152.0,STARLINK-3081,PAYLOAD,2023-01-28 21:34:19,14.98332288,0.000296,70.0011,238.1755,271.0589,89.023,5.0238e-05,5.07e-06,0.0,0 STARLINK-3081,1 49152U 21082Y   23028.89883614  .00000507  00000-0  50238-4 0  9990,2 49152  70.0011 238.1755 0002960 271.0589  89.0230 14.98332288 77950,6950.186,96.107,574.108,569.994,0.0
